CTC1_L_00665007-03
1 10062U 26820SR  26075.70040509  .00000000  00000+0  00000-0 0  9991
2 10062  55.0000 180.0000 0000000   0.0000 144.0000  2.02645322    16
CTC1_L_00665007-04
1 10063U 26752OV  26075.70040509  .00000000  00000+0  00000-0 0  9996
2 10063  55.0000 180.0000 0000000   0.0000 180.0000  2.02645322    17
CTC1_L_00665007-05
1 10064U 22581SR  26075.70040509  .00000000  00000+0  00000-0 0  9993
2 10064  55.0000 180.0000 0000000   0.0000 216.0000  2.02645322    18
CTC1_L_00665007-06
1 10065U 22728PG  26075.70040509  .00000000  00000+0  00000-0 0  9997
2 10065  55.0000 180.0000 0000000   0.0000 252.0000  2.02645322    19
CTC1_L_00665007-07
1 10066U 26976ID  26075.70040509  .00000000  00000+0  00000-0 0  9997
2 10066  55.0000 180.0000 0000000   0.0000 288.0000  2.02645322    19
CTC1_L_00665007-08
1 10067U 22615PP  26075.70040509  .00000000  00000+0  00000-0 0  9994
2 10067  55.0000 180.0000 0000000   0.0000 324.0000  2.02645322    11
CTC1_L_00665007-09
1 10068U 23643EI  26075.70040509  .00000000  00000+0  00000-0 0  9997
2 10068  55.0000 180.0000 0000000   0.0000   0.0000  2.02645322    13
CTC1_L_00665007-10
1 10069U 23899EE  26075.70040509  .00000000  00000+0  00000-0 0  9991
2 10069  55.0000 180.0000 0000000   0.0000  36.0000  2.02645322    13
CTC1_L_00665008-01
1 10070U 22313FA  26075.70040509  .00000000  00000+0  00000-0 0  9993
2 10070  55.0000 210.0000 0000000   0.0000  84.0000  2.02645322    12
CTC1_L_00665008-02
1 10071U 26996PN  26075.70040509  .00000000  00000+0  00000-0 0  9995
2 10071  55.0000 210.0000 0000000   0.0000 120.0000  2.02645322    14
CTC1_L_00665008-03
1 10072U 22353BW  26075.70040509  .00000000  00000+0  00000-0 0  9999
2 10072  55.0000 210.0000 0000000   0.0000 156.0000  2.02645322    14
CTC1_L_00665008-04
1 10073U 25962XI  26075.70040509  .00000000  00000+0  00000-0 0  9999
2 10073  55.0000 210.0000 0000000   0.0000 192.0000  2.02645322    15
CTC1_L_00665008-05
1 10074U 25969OZ  26075.70040509  .00000000  00000+0  00000-0 0  9997
2 10074  55.0000 210.0000 0000000   0.0000 228.0000  2.02645322    16
CTC1_L_00665008-06
1 10075U 22234ZL  26075.70040509  .00000000  00000+0  00000-0 0  9990
2 10075  55.0000 210.0000 0000000   0.0000 264.0000  2.02645322    17
CTC1_L_00665008-07
1 10076U 22188IQ  26075.70040509  .00000000  00000+0  00000-0 0  9999
2 10076  55.0000 210.0000 0000000   0.0000 300.0000  2.02645322    19
CTC1_L_00665008-08
1 10077U 25696FT  26075.70040509  .00000000  00000+0  00000-0 0  9997
2 10077  55.0000 210.0000 0000000   0.0000 336.0000  2.02645322    19
CTC1_L_00665008-09
1 10078U 22989HL  26075.70040509  .00000000  00000+0  00000-0 0  9990
2 10078  55.0000 210.0000 0000000   0.0000  12.0000  2.02645322    11
CTC1_L_00665008-10
1 10079U 23442GU  26075.70040509  .00000000  00000+0  00000-0 0  9996
2 10079  55.0000 210.0000 0000000   0.0000  48.0000  2.02645322    11
CTC1_L_00665009-01
1 10080U 26984NR  26075.70040509  .00000000  00000+0  00000-0 0  9992
2 10080  55.0000 240.0000 0000000   0.0000  96.0000  2.02645322    19
CTC1_L_00665009-02
1 10081U 22719JE  26075.70040509  .00000000  00000+0  00000-0 0  9995
2 10081  55.0000 240.0000 0000000   0.0000 132.0000  2.02645322    11
CTC1_L_00665009-03
1 10082U 23319QK  26075.70040509  .00000000  00000+0  00000-0 0  9993
2 10082  55.0000 240.0000 0000000   0.0000 168.0000  2.02645322    11
CTC1_L_00665009-04
1 10083U 22736KP  26075.70040509  .00000000  00000+0  00000-0 0  9996
2 10083  55.0000 240.0000 0000000   0.0000 204.0000  2.02645322    13
CTC1_L_00665009-05
1 10084U 23033Z   26075.70040509  .00000000  00000+0  00000-0 0  9998
2 10084  55.0000 240.0000 0000000   0.0000 240.0000  2.02645322    14
CTC1_L_00665009-06
1 10085U 23015GA  26075.70040509  .00000000  00000+0  00000-0 0  9999
2 10085  55.0000 240.0000 0000000   0.0000 276.0000  2.02645322    14
CTC1_L_00665009-07
1 10086U 22048BF  26075.70040509  .00000000  00000+0  00000-0 0  9995
2 10086  55.0000 240.0000 0000000   0.0000 312.0000  2.02645322    16
CTC1_L_00665009-08
1 10087U 26163OO  26075.70040509  .00000000  00000+0  00000-0 0  9998
2 10087  55.0000 240.0000 0000000   0.0000 348.0000  2.02645322    16
CTC1_L_00665009-09
1 10088U 22098FN  26075.70040509  .00000000  00000+0  00000-0 0  9992
2 10088  55.0000 240.0000 0000000   0.0000  24.0000  2.02645322    18
CTC1_L_00665009-10
1 10089U 23884SI  26075.70040509  .00000000  00000+0  00000-0 0  9997
2 10089  55.0000 240.0000 0000000   0.0000  60.0000  2.02645322    19
CTC1_L_00665010-01
1 10090U 24538NI  26075.70040509  .00000000  00000+0  00000-0 0  9996
2 10090  55.0000 270.0000 0000000   0.0000 108.0000  2.02645322    17
CTC1_L_00665010-02
1 10091U 23540K   26075.70040509  .00000000  00000+0  00000-0 0  9999
2 10091  55.0000 270.0000 0000000   0.0000 144.0000  2.02645322    18
CTC1_L_00665010-03
1 10092U 25455VY  26075.70040509  .00000000  00000+0  00000-0 0  9997
2 10092  55.0000 270.0000 0000000   0.0000 180.0000  2.02645322    19
CTC1_L_00665010-04
1 10093U 22866SB  26075.70040509  .00000000  00000+0  00000-0 0  9991
2 10093  55.0000 270.0000 0000000   0.0000 216.0000  2.02645322    10
CTC1_L_00665010-05
1 10094U 22589WD  26075.70040509  .00000000  00000+0  00000-0 0  9994
2 10094  55.0000 270.0000 0000000   0.0000 252.0000  2.02645322    11
CTC1_L_00665010-06
1 10095U 25409FT  26075.70040509  .00000000  00000+0  00000-0 0  9999
2 10095  55.0000 270.0000 0000000   0.0000 288.0000  2.02645322    11
CTC1_L_00665010-07
1 10096U 25405HT  26075.70040509  .00000000  00000+0  00000-0 0  9996
2 10096  55.0000 270.0000 0000000   0.0000 324.0000  2.02645322    13
CTC1_L_00665010-08
1 10097U 24388OE  26075.70040509  .00000000  00000+0  00000-0 0  9996
2 10097  55.0000 270.0000 0000000   0.0000   0.0000  2.02645322    15
CTC1_L_00665010-09
1 10098U 26394YN  26075.70040509  .00000000  00000+0  00000-0 0  9996
2 10098  55.0000 270.0000 0000000   0.0000  36.0000  2.02645322    15
CTC1_L_00665010-10
1 10099U 23688QK  26075.70040509  .00000000  00000+0  00000-0 0  9990
2 10099  55.0000 270.0000 0000000   0.0000  72.0000  2.02645322    16
CTC1_L_00665011-01
1 10100U 26668AG  26075.70040509  .00000000  00000+0  00000-0 0  9994
2 10100  55.0000 300.0000 0000000   0.0000 120.0000  2.02645322    17
CTC1_L_00665011-02
1 10101U 26090HH  26075.70040509  .00000000  00000+0  00000-0 0  9994
2 10101  55.0000 300.0000 0000000   0.0000 156.0000  2.02645322    17
CTC1_L_00665011-03
1 10102U 22748BM  26075.70040509  .00000000  00000+0  00000-0 0  9991
2 10102  55.0000 300.0000 0000000   0.0000 192.0000  2.02645322    18
CTC1_L_00665011-04
1 10103U 23092DS  26075.70040509  .00000000  00000+0  00000-0 0  9995
2 10103  55.0000 300.0000 0000000   0.0000 228.0000  2.02645322    19
CTC1_L_00665011-05
1 10104U 22820QP  26075.70040509  .00000000  00000+0  00000-0 0  9994
2 10104  55.0000 300.0000 0000000   0.0000 264.0000  2.02645322    10
CTC1_L_00665011-06
1 10105U 22860QV  26075.70040509  .00000000  00000+0  00000-0 0  9999
2 10105  55.0000 300.0000 0000000   0.0000 300.0000  2.02645322    12
CTC1_L_00665011-07
1 10106U 23081JQ  26075.70040509  .00000000  00000+0  00000-0 0  9996
2 10106  55.0000 300.0000 0000000   0.0000 336.0000  2.02645322    12
CTC1_L_00665011-08
1 10107U 26480YJ  26075.70040509  .00000000  00000+0  00000-0 0  9993
2 10107  55.0000 300.0000 0000000   0.0000  12.0000  2.02645322    14
CTC1_L_00665011-09
1 10108U 23823SL  26075.70040509  .00000000  00000+0  00000-0 0  9992
2 10108  55.0000 300.0000 0000000   0.0000  48.0000  2.02645322    14
CTC1_L_00665011-10
1 10109U 22305OV  26075.70040509  .00000000  00000+0  00000-0 0  9997
2 10109  55.0000 300.0000 0000000   0.0000  84.0000  2.02645322    15
CTC1_L_00665012-01
1 10110U 22396MO  26075.70040509  .00000000  00000+0  00000-0 0  9999
2 10110  55.0000 330.0000 0000000   0.0000 132.0000  2.02645322    14
CTC1_L_00665012-02
1 10111U 25623GM  26075.70040509  .00000000  00000+0  00000-0 0  9996
2 10111  55.0000 330.0000 0000000   0.0000 168.0000  2.02645322    14
CTC1_L_00665012-03
1 10112U 24540JX  26075.70040509  .00000000  00000+0  00000-0 0  9994
2 10112  55.0000 330.0000 0000000   0.0000 204.0000  2.02645322    16
CTC1_L_00665012-04
1 10113U 25839HU  26075.70040509  .00000000  00000+0  00000-0 0  9997
2 10113  55.0000 330.0000 0000000   0.0000 240.0000  2.02645322    17
CTC1_L_00665012-05
1 10114U 25930SR  26075.70040509  .00000000  00000+0  00000-0 0  9990
2 10114  55.0000 330.0000 0000000   0.0000 276.0000  2.02645322    17
CTC1_L_00665012-06
1 10115U 26703ZW  26075.70040509  .00000000  00000+0  00000-0 0  9990
2 10115  55.0000 330.0000 0000000   0.0000 312.0000  2.02645322    19
CTC1_L_00665012-07
1 10116U 24089CI  26075.70040509  .00000000  00000+0  00000-0 0  9996
2 10116  55.0000 330.0000 0000000   0.0000 348.0000  2.02645322    19
CTC1_L_00665012-08
1 10117U 26890HB  26075.70040509  .00000000  00000+0  00000-0 0  9999
2 10117  55.0000 330.0000 0000000   0.0000  24.0000  2.02645322    11
CTC1_L_00665012-09
1 10118U 25729LD  26075.70040509  .00000000  00000+0  00000-0 0  9990
2 10118  55.0000 330.0000 0000000   0.0000  60.0000  2.02645322    12
CTC1_L_00665012-10
1 10119U 23012QY  26075.70040509  .00000000  00000+0  00000-0 0  9994
2 10119  55.0000 330.0000 0000000   0.0000  96.0000  2.02645322    12
